#dP2019  5  3  0  0  0.00000000      96 __u+U ITR00 FIT  IAC
## 2051 432000.00000000   900.00000000 58606 0.0000000000000
+   91   C02C03C05C06C07C08C09C10C11C12C13C14C16E01E02E03E04
+        E05E07E08E09E11E12E13E14E15E18E19E21E24E25E26E27E30
+        E31E33E36G01G02G03G04G05G06G08G09G10G11G12G13G14G15
+        G16G17G18G19G20G21G22G23G24G25G26G27G28G29G30G31G32
+        R01R02R03R04R05R07R08R09R10R11R13R14R15R16R17R18R19
+        R20R21R22R23R24R26  0  0  0  0  0  0  0  0  0  0  0
++         0  0  0  0  0  0  0  0  0  0  0  0  0  0  0  0  0
++         0  0  0  0  0  0  0  0  0  0  0  0  0  0  0  0  0
++         0  0  0  0  0  0  0  0  0  0  0  0  0  0  0  0  0
++         0  0  0  0  0  0  0  0  0  0  0  0  0  0  0  0  0
++         0  0  0  0  0  0  0  0  0  0  0  0  0  0  0  0  0
++         0  0  0  0  0  0  0  0  0  0  0  0  0  0  0  0  0
%c M  cc GPS ccc cccc cccc cccc cccc ccccc ccccc ccccc ccccc
%c cc cc ccc ccc cccc cccc cccc cccc ccccc ccccc ccccc ccccc
%f  0.0000000  0.000000000  0.00000000000  0.000000000000000
%f  0.0000000  0.000000000  0.00000000000  0.000000000000000
%i    0    0    0    0      0      0      0      0         0
%i    0    0    0    0      0      0      0      0         0
/*                                                          
/*   RSA / INFORMATION & ANALYSIS CENTER (IAC) OF MCC       
/*   ULTRA-RAPID DETERMINATION                              
/* PCV:IGS14_2045 OL/AL:FES2004  NONE     YN ORB:CoN CLK:CoN
*  2019 05 03 14  0  0.00000000
PC02      0.000000      0.000000      0.000000    182.547096
PC03      0.000000      0.000000      0.000000    249.401741
PC05      0.000000      0.000000      0.000000   -313.176006
PC06 -20085.101073  37229.034698   2633.104381    771.979926
PC07  -9042.892235  27201.288022 -30653.559060      0.992110
PC08 -22200.300753  20134.859251  29623.995304    148.235896
PC09  -9412.577447  38753.206762 -14011.122782    729.187465
PC10   4968.404383  34819.993502 -22841.868664   -723.731294
PC11   5715.002339 -20358.239317 -18185.657913   -137.927437
PC12  23243.180826 -14062.380188   6615.601173    628.110313
PC13  -4984.755884  23596.415615  34612.060105   -695.336506
PC14   4399.195261 -24375.077750 -12742.058707    633.952179
PC16 -16471.475463  38855.218350  -2068.219738   -679.463205
PE01 -22554.774131 -19120.649688  -1404.543856   -596.824513
PE02  22569.365982  19104.155717   1436.530810     58.631888
PE03  12203.697061  16165.316937 -21574.275135   -162.022132
PE04 -17876.644455   5569.696116  22936.381828   -274.167494
PE05   -672.714021  28610.251042  -7553.213636     63.503455
PE07  13073.330118 -24265.741813 -10789.171237   -180.533411
PE08  17691.087981  -5868.409407 -22988.247937   6362.252195
PE09 -12819.571871  24372.264910  10848.087958   6450.847842
PE11 -20715.325851  16350.953170  13428.345407   5699.988701
PE12 -28534.579726   5668.874947  -5530.437754   6414.438300
PE13  20753.143513 -16355.321717 -13321.620439    386.514134
PE14  -7947.258575  22861.256440   8390.867668   -552.686411
PE15  28495.793232  -6039.843216   5238.099817    911.726935
PE18  -3368.768955 -23595.959212 -20431.242404   -650.867877
PE19 -11090.760352 -17952.307361  20766.004524     -6.668841
PE21  -8946.020411 -22789.870535  16631.394362   -532.128315
PE24  -9671.805832  13279.102554 -24639.456964   6100.590856
PE25   8881.408586  22778.533130 -16684.501330   1815.787419
PE26    916.584479 -17266.561631 -24019.281510   4611.939948
PE27   9910.943446 -12990.984179  24678.380331    477.455801
PE30  22794.821158   4246.417986  18389.353001   4901.724860
PE31 -22908.350547  -4411.632001 -18221.650082   -464.423936
PE33 -19591.384846  -7821.531012 -20763.238118   -470.359451
PE36   -837.019646  17125.571359  24136.662999    716.731839
PG01 -13320.160562 -13412.843577 -18968.768036     -7.822100
PG02 -10739.243875  14493.406699  20051.928276   -204.165041
PG03 -12442.996845 -23520.104849     -5.275310    188.263261
PG04 -17770.731284   1779.383285  19673.790646    156.463452
PG05  -1793.195559  20668.602463  16348.373956      1.013496
PG06 -22546.264867   7397.866599  12011.991440    215.178781
PG08   2603.646493 -22435.322281 -13774.389482   -142.199886
PG09 -14958.968546  -4680.446638  21403.034591    418.059949
PG10  16303.211361   -425.371036 -20936.861875     56.613140
PG11  -7909.720761 -14598.018873 -21254.411666   -614.322944
PG12  10184.822703  24618.112391  -1115.297979    245.795859
PG13 -11490.045719  22649.214526  -7808.846016    -65.244995
PG14  18627.846836 -17532.710262  -6458.546815    -82.017821
PG15   1156.534711  22102.711003 -14657.087747   -315.066788
PG16   2627.045470 -20811.188368  15830.475408    -37.256445
PG17 -19248.572113  11021.248782 -14140.008498     48.837345
PG18  -3074.915141 -15469.625518 -21870.319637     49.859164
PG19 -19478.630892  16402.225807  -7998.873547   -323.425617
PG20  19955.338252   8200.333325 -15689.749719    524.449560
PG21  25873.071363   3283.150727   5370.851369   -200.114600
PG22  -8686.485559 -24028.256150  -7162.595512   -694.584066
PG23  -7287.910019 -16090.294093  20049.088473   -187.742857
PG24   9898.330306  14573.187098 -20119.415663    -65.579666
PG25  17048.370616  17882.802885   9872.146766   -752.401831
PG26   9781.039036 -13032.205351  20921.813470    191.912179
PG27  11468.169021 -23456.420583  -3978.802410   -122.890860
PG28 -15706.131195  -1648.332189 -20733.456647    767.755345
PG29  10921.902842   9859.500994  22081.300151    210.643344
PG30 -26557.818484   -416.142895  -2311.994657    -97.766539
PG31  22067.872535  -7699.452183  13021.261438     40.765506
PG32  18867.137621 -13566.407466 -12695.375638   -104.341555
PR01   9595.317830 -12180.820280 -20251.536610     43.245561
PR02   1819.100099 -25135.996739  -3721.744816    366.737632
PR03  -6399.169669 -20766.554468  13368.649324     -5.390667
PR04 -10872.162290  -3769.165484  22785.301280    304.864212
PR05  -8959.770758  14347.088832  19116.164558     27.377634
PR07   6514.959257  20529.338610 -13655.786303    -19.341511
PR08  10775.440614   4645.163904 -22592.317012     17.945501
PR09   4367.925162  14190.003441 -20713.430983     67.716170
PR10  17467.852712  15693.286924  -9887.750712     48.994458
PR11  22540.528313   8337.010983   8490.290672    -64.905256
PR13  -2960.679360 -13329.700990  21524.304702    -23.198764
PR14 -17695.285725 -15624.451249   9689.998211     38.568873
PR15 -22616.350406  -8968.919152  -7645.624003    101.735352
PR16 -14402.318593   3417.275948 -20768.044057      9.811068
PR17  -6127.612016  -8725.375056 -23163.665940    225.074351
PR18 -19481.974002   2615.292989 -16281.801840     -8.141975
PR19 -22551.635533  11909.979772   -634.373449    -28.720853
PR20 -11627.925491  14989.104359  17088.261855   -376.902179
PR21   6733.727656   8272.563795  23171.521694    -45.907307
PR22  20613.909948  -4237.398139  14319.853011    -17.392767
PR23  20698.418102 -14146.321705  -4686.604171    225.655825
PR24   9723.711354 -14943.510064 -18257.288936   -180.026265
PR26 -13424.230223  15486.160860  15184.207303     -8.802319
EOF
